0231P         2027 08  4.5559  3.087160  0.239995   43.6956  132.7777   12.2726  20250704  14.5  2.0  231P/LINEAR-NEAT                                         MPEC 2023-SQ0
0232P         2028 09 20.5845  2.967480  0.336127   53.3042   56.0094   14.6429  20250704  11.5  4.0  232P/Hill                                                MPC112394
0233P         2026 01  8.1358  1.776702  0.412988   27.0242   74.8975   11.2889  20250704  15.0  4.0  233P/La Sagra                                            MPEC 2021-N06
0234P         2024 10 23.6747  2.820887  0.257304  357.4450  179.5641   11.5336  20250704  12.0  4.0  234P/LINEAR                                              MPEC 2025-MC0
0235P         2025 12 22.6249  1.978023  0.426068  352.1721  200.1751    9.8127  20250704  12.0  4.0  235P/LINEAR                                              MPC184419
0236P         2025 02  3.8455  1.828145  0.509338  119.4315  245.5692   16.3550  20250704  14.0  4.0  236P/LINEAR                                              MPEC 2024-P23
0237P         2023 05 14.3287  1.995993  0.432535   25.5430  245.3584   14.0098  20250704  14.5  2.0  237P/LINEAR                                              MPC182890
0238P         2028 01 24.0579  2.373822  0.250589  324.2642   51.6491    1.2637  20250704  14.5  4.0  238P/Read                                                MPEC 2024-L77
0239P         2028 06 17.6590  1.644834  0.631512  220.3855  255.9360   11.3065  20250704  17.5  2.0  239P/LINEAR                                              MPEC 2021-F20
0240P         2025 12 19.9593  2.121798  0.450292  352.0737   74.9115   23.5372  20250704  11.0  4.0  240P/NEAT                                                MPEC 2025-MC0
0241P         2021 07 26.1900  1.921260  0.610119  111.6171  305.4164   21.0949  20250704  13.5  4.0  241P/LINEAR                                              MPEC 2022-J42
0242P         2024 12 23.3963  3.971702  0.282853  244.9893  180.2375   32.4231  20250704   8.0  4.0  242P/Spahr                                               MPEC 2025-MC0
0243P         2026 02 25.5397  2.448036  0.360294  283.7033   87.6476    7.6441  20250704  12.5  4.0  243P/NEAT                                                MPEC 2022-K19
0244P         2022 11 20.1527  3.924582  0.199826   93.5160  354.0069    2.2576  20250704   9.0  4.0  244P/Scotti                                              MPEC 2024-L77
0245P         2026 03 31.1898  2.205485  0.455816  316.5000  316.8849   21.1713  20250704  14.0  4.0  245P/WISE                                                MPEC 2022-CN4
0246P         2029 10 22.9481  3.360567  0.218847  185.4303   74.1990   17.4513  20250704  10.5  4.0  246P/NEAT                                                MPEC 2024-YC7
0247P         2026 10 25.9553  1.484088  0.625589   47.5073   53.9858   13.6581  20250704  16.5  2.0  247P/LINEAR                                              MPEC 2021-F20
0248P         2025 09 14.9260  2.157755  0.639313  209.9910  207.7960    6.3519  20250704  14.0  4.0  248P/Gibbs                                               MPEC 2025-MC0
0249P         2025 02  1.7001  0.499573  0.819391   65.7558  239.0399    8.3842  20250704  15.5  4.0  249P/LINEAR                                              MPEC 2022-YN2
0250P         2025 05 16.7224  2.272322  0.398309   45.7039   73.3023   13.1519  20250704  14.5  4.0  250P/Larson                                              MPC182890
0251P         2024 02 13.1383  1.741164  0.504200   31.1915  219.3372   23.3885  20250704  16.5  2.0  251P/LINEAR                                              MPEC 2024-TD8
0252P         2026 11  7.7305  1.003688  0.671058  343.3742  190.9063   10.4200  20250704  17.5  4.0  252P/LINEAR                                              MPEC 2021-S45
0253P         2024 10 21.0338  2.026318  0.415259  230.8501  146.8273    4.9454  20250704  14.5  4.0  253P/PANSTARRS                                           MPC182890
0254P         2020 09 28.3434  3.148835  0.318451  219.7232  129.1789   32.5383  20250704  11.0  4.0  254P/McNaught                                            MPC184419
0255P         2027 09 25.5064  0.847190  0.712062  186.0457  275.6367   13.4054  20250704   9.0  4.0  255P/Levy                                                NK   2214
0256P         2023 03 11.9410  2.697412  0.418027  124.0629   81.3240   27.6233  20250704  14.0  2.0  256P/LINEAR                                              MPEC 2024-L77
0257P         2028 01  1.6894  2.152451  0.428761  117.7232  207.7291   20.2154  20250704  11.5  4.0  257P/Catalina                                            MPEC 2023-A50
0258P         2029 08 28.8006  3.468967  0.209575   25.6116  126.2361    6.7512  20250704  13.0  4.0  258P/PANSTARRS                                           MPEC 2021-U31
0259P         2026 08 12.1552  1.804889  0.338734  257.4858   51.3733   15.8981  20250704  15.5  4.0  259P/Garradd                                             MPC106349
0260P         2026 08  4.9948  1.417646  0.608779   18.4929  349.3035   15.0429  20250704  13.5  4.0  260P/McNaught                                            MPEC 2022-O01
0261P         2025 12 27.4041  2.014217  0.422797   67.3632  291.0506    6.0733  20250704  14.0  4.0  261P/Larson                                              MPEC 2025-MC0
0262P         2030 12 15.1166  1.264261  0.815956  171.0696  217.8862   29.2477  20250704  13.5  4.0  262P/McNaught-Russell                                    MPC 82322
0263P         2023 01 30.9286  1.234365  0.594070   35.0220  105.5040   11.5267  20250704  18.0  4.0  263P/Gibbs                                               MPEC 2024-L77
0264P         2027 03 15.6341  2.658271  0.340317  341.1386  219.1267   25.1362  20250704  13.0  4.0  264P/Larsen                                              MPC114608
0265P         2029 11 26.2074  1.505401  0.646694   33.5653  342.9202   14.3402  20250704  14.5  4.0  265P/LINEAR                                              MPC 79870
0266P         2026 12  7.3185  2.325054  0.340941   97.7945    4.9464    3.4284  20250704  14.7  4.0  266P/Christensen                                         MPEC 2021-F20
0267P         2024 04 24.9471  1.235244  0.614944  114.1969  228.5437    6.1396  20250704  19.5  4.0  267P/LONEOS                                              MPC114608
0268P         2024 12 18.4844  2.412718  0.474487    0.0185  125.6323   15.6615  20250704  14.0  4.0  268P/Bernardi                                            MPEC 2025-MC0
0269P         2033 07 11.3667  3.998236  0.433539  225.7356  241.7635    7.0838  20250704  10.0  4.0  269P/Jedicke                                             MPEC 2023-J29
0270P         2030 08 16.7057  3.522712  0.470188  209.9338  223.0239    2.9248  20250704   8.0  4.0  270P/Gehrels                                             MPC 88332
0271P         2032 03 21.8601  4.248648  0.395855   36.6224    9.2768    6.8665  20250704  11.0  4.0  271P/van Houten-Lemmon                                   MPC 92277
0272P         2022 07 17.5277  2.429473  0.455520   27.8904  109.4391   18.0824  20250704  16.0  2.0  272P/NEAT                                                MPEC 2023-D41
0273P         2012 12 21.9005  0.813206  0.974525   20.1221  320.3832  136.3598  20250704  11.5  4.0  273P/Pons-Gambart                                        MPC 82723
0274P         2022 04  9.1980  2.450851  0.440254   38.4962   81.3175   15.8205  20250704  13.0  4.0  274P/Tombaugh-Tenagra                                    MPEC 2024-GJ3
0275P         2026 10 27.9799  1.659079  0.713771  173.8936  348.6841   21.2540  20250704  17.0  4.0  275P/Hermann                                             MPC 81862
0276P         2024 12 11.1289  3.898614  0.273902  199.3872  211.2485   14.7702  20250704  11.5  4.0  276P/Vorobjov                                            MPC184419
0277P         2028 07 25.8656  1.902158  0.506394  152.4384  276.2600   16.7931  20250704  15.1  4.0  277P/LINEAR                                              MPEC 2021-F20
0278P         2027 09 14.8445  1.993756  0.451981  240.7326   12.4636    6.6123  20250704  14.0  4.0  278P/McNaught                                            MPEC 2021-S45
0279P         2023 04 18.7372  2.142600  0.399476    5.6247  346.0984    5.0531  20250704  14.0  4.0  279P/LaSagra                                             MPEC 2024-A43
0280P         2023 08  4.3863  2.638484  0.416830  104.6342  131.3779   11.7754  20250704  12.5  4.0  280P/Larsen                                              MPEC 2024-RQ6
0281P         2023 02  4.2954  4.036946  0.173927   27.0207   87.1663    4.7176  20250704  11.0  4.0  281P/MOSS                                                MPEC 2023-D41
0282P         2021 10 22.5892  3.440623  0.187654    9.0849  217.6071    5.8138  20250704  13.5  2.0  282P                                                     MPC133426
0283P         2021 09  8.3727  2.127735  0.485013   22.1444  161.1238   14.4687  20250704  16.0  2.0  283P/Spacewatch                                          MPEC 2022-K19
0284P         2028 10  1.6398  2.301953  0.374296  202.4617  144.2639   11.8529  20250704  13.0  4.0  284P/McNaught                                            MPEC 2024-D33
0285P         2023 01 11.7915  1.720769  0.618056  178.3841  185.5143   25.0325  20250704  15.0  4.0  285P/LINEAR                                              MPEC 2024-L77
0286P         2022 05 12.7010  2.317809  0.431432   23.9797  283.5766   17.2320  20250704  14.0  4.0  286P/Christensen                                         MPEC 2024-LE0
0287P         2023 07 10.9780  3.045931  0.272862  190.5453  138.6512   16.3474  20250704  13.5  4.0  287P/Christensen                                         MPEC 2025-A40
0288P         2027 06 29.0024  2.441705  0.199596  280.2840   83.1063    3.2383  20250704  16.0  2.0  288P                                                     MPC133426
